SL-16 R/B               
1 23405U 94077B   26166.35413567 -.00000009  00000+0  19916-4 0  9995
2 23405  70.9808 147.0187 0002846 329.2012  30.8943 14.15571762630055
ARIANE 40+ R/B          
1 23561U 95021B   26166.17673197  .00000218  00000+0  83276-4 0  9996
2 23561  98.4411 236.2806 0006313 199.8513 214.4832 14.39832278633274
SL-16 R/B               
1 23705U 95058B   26166.57784311  .00000271  00000+0  16302-3 0  9995
2 23705  71.0219 334.7373 0013681 322.7261  37.2911 14.15507538581704
SL-16 R/B               
1 24298U 96051B   26166.61496734  .00000103  00000+0  82563-4 0  9998
2 24298  70.7640 327.9762 0015335 339.2433  20.8062 14.12445350535472
ORBVIEW 2 (SEASTAR)     
1 24883U 97037A   26166.48659147  .00000167  00000+0  74400-4 0  9998
2 24883  98.8685 333.4585 0003143 119.5446 240.6053 14.35552543522504
SL-16 R/B               
1 25400U 98043G   26166.46854097  .00000027  00000+0  30141-4 0  9990
2 25400  98.8363 120.6129 0010943  90.7981 269.4452 14.26068349452929
SL-16 R/B               
1 25407U 98045B   26166.61135703 -.00000247  00000+0 -10057-3 0  9991
2 25407  71.0119 335.6440 0009468 243.4367 116.5787 14.16203779440968
ISS (ZARYA)             
1 25544U 98067A   26166.51237796  .00007685  00000+0  14626-3 0  9998
2 25544  51.6337 308.3821 0004850 189.0196 171.0706 15.49243792571497
CZ-4B R/B               
1 25732U 99025C   26166.59648228  .00000053  00000+0  46115-4 0  9997
2 25732  98.6484 208.4750 0038131  64.1170  50.3768 14.18283233402045
OKEAN-O                 
1 25860U 99039A   26166.59027553  .00000509  00000+0  73411-4 0  9991
2 25860  97.9318 225.4065 0001662  73.3616 286.7778 14.80465517448872
SL-16 R/B               
1 25861U 99039B   26166.41096257  .00000419  00000+0  59766-4 0  9997
2 25861  97.9839 225.2790 0013557 303.2339  56.7573 14.81843547451334
DELTA 2 R/B             
1 25876U 99041E   26166.54747938  .00000633  00000+0  13968-3 0  9990
2 25876  51.7657 270.3469 0500849 277.1692  77.2575 14.12013801376855
HELIOS 1B               
1 25977U 99064A   26166.49750797  .00001217  00000+0  13899-3 0  9990
2 25977  98.1616  71.5884 0002477  93.6315 266.5184 14.88002633699802
TERRA                   
1 25994U 99068A   26166.59087417  .00000320  00000+0  74204-4 0  9998
2 25994  97.9457 216.2004 0001454 195.2632 286.2211 14.61101935409375
SL-16 R/B               
1 26070U 00006B   26166.58152466 -.00000131  00000+0 -42377-4 0  9992
2 26070  71.0022 252.0012 0015456  25.4246 334.7634 14.15834152362415
TITAN 4B R/B            
1 26474U 00047B   26166.47073577  .00002675  00000+0  16785-3 0  9994
2 26474  67.9879 125.4044 0045690 288.9464  70.6736 15.10188829407672
ENVISAT                 
1 27386U 02009A   26166.60206669  .00000064  00000+0  34467-4 0  9990
2 27386  98.3834 117.9558 0001347  88.9160  84.2025 14.39064465273258
IDEFIX & ARIANE 42P R/B 
1 27422U 02021B   26166.45155765  .00000163  00000+0  78517-4 0  9992
2 27422  98.5943 103.9534 0010569 259.6189 100.3802 14.31081321258006
AQUA                    
1 27424U 02022A   26166.56263127  .00000667  00000+0  14236-3 0  9995
2 27424  98.4276 135.8130 0001163  53.1413  81.5660 14.62155971283039
CZ-4B R/B               
1 27432U 02024C   26166.62463847  .00000044  00000+0  45051-4 0  9993
2 27432  98.8701 219.4551 0051200 104.5733  13.3225 14.14564191243080
MIDORI II (ADEOS-II)    
1 27597U 02056A   26166.45802671  .00000200  00000+0  96402-4 0  9993
2 27597  98.7878 125.7031 0002219  79.4956 280.6475 14.29348747224269
H-2A R/B                
1 27601U 02056E   26166.48607598  .00000144  00000+0  65202-4 0  9994
2 27601  98.3311 123.2226 0069110 229.7060 240.4324 14.33821348228125
CZ-4B R/B               
1 28059U 03049C   26166.58090590  .00000239  00000+0  66517-4 0  9999
2 28059  98.6895 165.3635 0047008 293.6243  66.0021 14.55099212200834
CZ-2C R/B               
1 28222U 04012C   26166.19535017  .00083953  00000+0  47830-3 0  9997
2 28222  97.7094 241.6267 0009181 291.9610  68.0680 15.78647090219589
SL-16 R/B               
1 28353U 04021B   26166.60561893 -.00000264  00000+0 -11235-3 0  9995
2 28353  71.0010  27.0086 0007331 256.8207 103.2098 14.14609053136689
CZ-4B R/B               
1 28415U 04035C   26166.56361058  .00006817  00000+0  22986-3 0  9998
2 28415  97.3363 199.6553 0030067 343.9193  16.1090 15.30607059194871
CZ-2C R/B               
1 28480U 04046B   26166.57881797  .00000061  00000+0  38297-4 0  9998
2 28480  98.1946  75.4601 0138412 225.0584 133.9305 14.27026176122464
ARIANE 5 R/B            
1 28499U 04049H   26166.44624442  .00000557  00000+0  67697-4 0  9995
2 28499  98.2719 338.6320 0084617  35.0210 325.6528 14.85446882160303
CZ-2D R/B               
1 28738U 05024B   26166.56159894  .00048722  00000+0  41551-3 0  9998
2 28738  97.3477 185.9092 0003638  58.1613 302.0003 15.69395386155087
ALOS (DAICHI)           
1 28931U 06002A   26166.45694277  .00000889  00000+0  15631-3 0  9999
2 28931  98.1323 122.0297 0001523  58.2698 301.8656 14.70047041 87847
