OBJECT_NAME,OBJECT_ID,EPOCH,MEAN_MOTION,ECCENTRICITY,INCLINATION,RA_OF_ASC_NODE,ARG_OF_PERICENTER,MEAN_ANOMALY,EPHEMERIS_TYPE,CLASSIFICATION_TYPE,NORAD_CAT_ID,ELEMENT_SET_NO,REV_AT_EPOCH,BSTAR,MEAN_MOTION_DOT,MEAN_MOTION_DDOT
SL-16 R/B,1994-077B,2026-06-15T08:29:57.321888,14.15571762,.00028465,70.9808,147.0187,329.2012,30.8943,0,U,23405,999,63005,.19915622E-4,-.9E-7,0
ARIANE 40+ R/B,1995-021B,2026-06-15T04:14:29.642208,14.39832278,.00063132,98.4411,236.2806,199.8513,214.4832,0,U,23561,999,63327,.83276081E-4,.218E-5,0
SL-16 R/B,1995-058B,2026-06-15T13:52:05.644704,14.15507538,.0013681,71.0219,334.7373,322.7261,37.2911,0,U,23705,999,58170,.16302131E-3,.271E-5,0
SL-16 R/B,1996-051B,2026-06-15T14:45:33.178176,14.12445350,.00153353,70.7640,327.9762,339.2433,20.8062,0,U,24298,999,53547,.82563415E-4,.103E-5,0
ORBVIEW 2 (SEASTAR),1997-037A,2026-06-15T11:40:41.503008,14.35552543,.00031438,98.8685,333.4585,119.5446,240.6053,0,U,24883,999,52250,.7439967E-4,.167E-5,0
SL-16 R/B,1998-043G,2026-06-15T11:14:41.939808,14.26068349,.00109433,98.8363,120.6129,90.7981,269.4452,0,U,25400,999,45292,.30141269E-4,.27E-6,0
SL-16 R/B,1998-045B,2026-06-15T14:40:21.247392,14.16203779,.0009468,71.0119,335.6440,243.4367,116.5787,0,U,25407,999,44096,-.10056892E-3,-.247E-5,0
ISS (ZARYA),1998-067A,2026-06-15T12:17:49.455744,15.49243792,.000485,51.6337,308.3821,189.0196,171.0706,0,U,25544,999,57149,.14626019E-3,.7685E-4,0
CZ-4B R/B,1999-025C,2026-06-15T14:18:56.068992,14.18283233,.00381312,98.6484,208.4750,64.1170,50.3768,0,U,25732,999,40204,.46114907E-4,.53E-6,0
OKEAN-O,1999-039A,2026-06-15T14:09:59.805792,14.80465517,.00016624,97.9318,225.4065,73.3616,286.7778,0,U,25860,999,44887,.73410526E-4,.509E-5,0
SL-16 R/B,1999-039B,2026-06-15T09:51:47.166048,14.81843547,.00135579,97.9839,225.2790,303.2339,56.7573,0,U,25861,999,45133,.59766235E-4,.419E-5,0
DELTA 2 R/B,1999-041E,2026-06-15T13:08:22.218432,14.12013801,.05008493,51.7657,270.3469,277.1692,77.2575,0,U,25876,999,37685,.13967699E-3,.633E-5,0
HELIOS 1B,1999-064A,2026-06-15T11:56:24.688608,14.88002633,.00024779,98.1616,71.5884,93.6315,266.5184,0,U,25977,999,69980,.13898993E-3,.1217E-4,0
TERRA,1999-068A,2026-06-15T14:10:51.528288,14.61101935,.00014546,97.9457,216.2004,195.2632,286.2211,0,U,25994,999,40937,.74204041E-4,.32E-5,0
SL-16 R/B,2000-006B,2026-06-15T13:57:23.730624,14.15834152,.00154564,71.0022,252.0012,25.4246,334.7634,0,U,26070,999,36241,-.42376992E-4,-.131E-5,0
TITAN 4B R/B,2000-047B,2026-06-15T11:17:51.570528,15.10188829,.00456908,67.9879,125.4044,288.9464,70.6736,0,U,26474,999,40767,.16784996E-3,.2675E-4,0
ENVISAT,2002-009A,2026-06-15T14:26:58.562016,14.39064465,.00013478,98.3834,117.9558,88.9160,84.2025,0,U,27386,999,27325,.34466722E-4,.64E-6,0
IDEFIX & ARIANE 42P R/B,2002-021B,2026-06-15T10:50:14.580960,14.31081321,.00105693,98.5943,103.9534,259.6189,100.3802,0,U,27422,999,25800,.78516828E-4,.163E-5,0
AQUA,2002-022A,2026-06-15T13:30:11.341728,14.62155971,.00011633,98.4276,135.8130,53.1413,81.5660,0,U,27424,999,28303,.14235676E-3,.667E-5,0
CZ-4B R/B,2002-024C,2026-06-15T14:59:28.763808,14.14564191,.00512008,98.8701,219.4551,104.5733,13.3225,0,U,27432,999,24308,.45051292E-4,.44E-6,0
MIDORI II (ADEOS-II),2002-056A,2026-06-15T10:59:33.507744,14.29348747,.00022196,98.7878,125.7031,79.4956,280.6475,0,U,27597,999,22426,.96402341E-4,.2E-5,0
H-2A R/B,2002-056E,2026-06-15T11:39:56.964672,14.33821348,.00691109,98.3311,123.2226,229.7060,240.4324,0,U,27601,999,22812,.65202339E-4,.144E-5,0
CZ-4B R/B,2003-049C,2026-06-15T13:56:30.269760,14.55099212,.00470089,98.6895,165.3635,293.6243,66.0021,0,U,28059,999,20083,.66517462E-4,.239E-5,0
CZ-2C R/B,2004-012C,2026-06-15T04:41:18.254688,15.78647090,.00091811,97.7094,241.6267,291.9610,68.0680,0,U,28222,999,21958,.47829767E-3,.83953E-3,0
SL-16 R/B,2004-021B,2026-06-15T14:32:05.475552,14.14609053,.00073311,71.0010,27.0086,256.8207,103.2098,0,U,28353,999,13668,-.11235204E-3,-.264E-5,0
CZ-4B R/B,2004-035C,2026-06-15T13:31:35.954112,15.30607059,.0030067,97.3363,199.6553,343.9193,16.1090,0,U,28415,999,19487,.22986429E-3,.6817E-4,0
CZ-2C R/B,2004-046B,2026-06-15T13:53:29.872608,14.27026176,.01384128,98.1946,75.4601,225.0584,133.9305,0,U,28480,999,12246,.38297393E-4,.61E-6,0
ARIANE 5 R/B,2004-049H,2026-06-15T10:42:35.517888,14.85446882,.00846179,98.2719,338.6320,35.0210,325.6528,0,U,28499,999,16030,.67697196E-4,.557E-5,0
CZ-2D R/B,2005-024B,2026-06-15T13:28:42.148416,15.69395386,.0003638,97.3477,185.9092,58.1613,302.0003,0,U,28738,999,15508,.41551416E-3,.48722E-3,0
ALOS (DAICHI),2006-002A,2026-06-15T10:57:59.855328,14.70047041,.00015235,98.1323,122.0297,58.2698,301.8656,0,U,28931,999,8784,.1563062E-3,.889E-5,0
